STARLINK-4412           
1 53477U 22099N   23226.31436438  .00001279  00000+0  10418-3 0  9990
2 53477  97.6548 346.5384 0001368 229.0982 131.0124 15.01257460 55430
STARLINK-4433           
1 53478U 22099P   23226.30855954  .00001010  00000+0  83178-4 0  9995
2 53478  97.6553 346.5559 0003163 217.7795 142.3208 15.01263914 55431
STARLINK-4436           
1 53479U 22099Q   23225.90679801  .00000703  00000+0  59336-4 0  9993
2 53479  97.6556 346.1460 0003366 207.2528 152.8520 15.01258207 55370
STARLINK-4442           
1 53480U 22099R   23226.31041308  .00001519  00000+0  12282-3 0  9990
2 53480  97.6552 346.5450 0002708 225.6762 134.4241 15.01261302 55437
STARLINK-4302           
1 53481U 22099S   23225.90495022  .00001588  00000+0  12824-3 0  9999
2 53481  97.6559 346.1433 0003382 194.6492 165.4635 15.01256390 55371
STARLINK-4360           
1 53482U 22099T   23226.29374704  .00002513  00000+0  20014-3 0  9995
2 53482  97.6589 346.5611 0002106 215.7189 144.3895 15.01265986 55430
STARLINK-4401           
1 53483U 22099U   23226.35854924  .00002203  00000+0  17602-3 0  9995
2 53483  97.6584 346.6193 0001694 210.7719 149.3406 15.01265791 55445
STARLINK-4426           
1 53484U 22099V   23225.90309795  .00001746  00000+0  14050-3 0  9992
2 53484  97.6558 346.1419 0002605 186.4639 173.6552 15.01259095 55370
STARLINK-4430           
1 53485U 22099W   23225.36432337  .00000131  00000+0  14797-4 0  9998
2 53485  97.6592 345.6124 0000917 189.9930 170.1276 15.01261237 55299
STARLINK-4431           
1 53486U 22099X   23225.30137574  .00000653  00000+0  55394-4 0  9995
2 53486  97.6572 345.5493 0001987 186.1309 173.9891 15.01261177 55289
STARLINK-4432           
1 53487U 22099Y   23225.90148816  .00001047  00000+0  86073-4 0  9999
2 53487  97.6570 346.1205 0003348 227.2834 132.8108 15.01257637 55370
STARLINK-4421           
1 53488U 22099Z   23226.09935318  .00001281  00000+0  10429-3 0  9993
2 53488  97.6565 346.3360 0001623 172.3784 187.7465 15.01261151 55402
STARLINK-4392           
1 53489U 22099AA  23226.29954608 -.00001482  00000+0 -11073-3 0  9990
2 53489  97.6572 346.5146 0003478 220.7232 139.3733 15.01271245 55430
STARLINK-4387           
1 53490U 22099AB  23226.09565091  .00001617  00000+0  13042-3 0  9990
2 53490  97.6586 346.3356 0000233  70.5272 289.5977 15.01261058 55405
STARLINK-4450           
1 53491U 22099AC  23226.21808984  .00001091  00000+0  89534-4 0  9992
2 53491  97.6569 346.4757 0000387 127.8357 232.2902 15.01263176 55421
STARLINK-4451           
1 53492U 22099AD  23226.29007256  .00016418  00000+0  12821-2 0  9996
2 53492  97.6581 346.5397 0001605 185.3321 174.7886 15.01193783 55439
STARLINK-4361           
1 53493U 22099AE  23226.35485133 -.00000317  00000+0 -20114-4 0  9997
2 53493  97.6567 346.5925 0000326 146.2750 213.8495 15.01268915 55444
STARLINK-4340           
1 53494U 22099AF  23226.29214910  .00001469  00000+0  11896-3 0  9997
2 53494  97.6582 346.5309 0001260 181.9191 178.2029 15.01263487 55436
STARLINK-4429           
1 53495U 22099AG  23226.21600238  .00001814  00000+0  14579-3 0  9997
2 53495  97.6570 346.4665 0002039  88.4236 271.7222 15.01259159 55439
STARLINK-4465           
1 53496U 22099AH  23226.35300433  .00001517  00000+0  12265-3 0  9997
2 53496  97.6573 346.5998 0001476  99.9349 260.2041 15.01262791 55448
STARLINK-4453           
1 53497U 22099AJ  23226.34559539  .00001769  00000+0  14228-3 0  9990
2 53497  97.6569 346.5950 0001787  91.4175 268.7254 15.01267333 55458
STARLINK-4439           
1 53498U 22099AK  23226.34584138  .00002024  00000+0  16208-3 0  9999
2 53498  97.6567 346.6065 0001790  92.9583 267.1846 15.01266019 55447
STARLINK-4454           
1 53499U 22099AL  23226.35115015  .00001179  00000+0  96338-4 0  9998
2 53499  97.6567 346.5844 0000762 114.0326 246.0978 15.01263862 55446
STARLINK-4455           
1 53500U 22099AM  23226.34744780  .00002621  00000+0  20850-3 0  9995
2 53500  97.6566 346.5965 0001639  94.1928 265.9484 15.01267708 55458
STARLINK-4434           
1 53501U 22099AN  23226.33658417  .00000912  00000+0  75598-4 0  9997
2 53501  97.6558 346.5923 0001706  97.4700 262.6718 15.01264301 55442
STARLINK-4435           
1 53502U 22099AP  23226.34374775  .00001928  00000+0  15461-3 0  9991
2 53502  97.6563 346.5928 0001797  89.9351 270.2079 15.01263838 55441
STARLINK-4461           
1 53503U 22099AQ  23226.33819316  .00000967  00000+0  79856-4 0  9997
2 53503  97.6559 346.5869 0001770  98.1285 262.0140 15.01262575 55445
STARLINK-4448           
1 53504U 22099AR  23226.34189439  .00002302  00000+0  18375-3 0  9998
2 53504  97.6562 346.5907 0001751  96.3930 263.7493 15.01267106 55443
STARLINK-4446           
1 53505U 22099AS  23226.33449175  .00001645  00000+0  13262-3 0  9993
2 53505  97.6553 346.5818 0001766  91.8633 268.2794 15.01262603 55442
STARLINK-4437           
1 53506U 22099AT  23226.34004447  .00003911  00000+0  30879-3 0  9995
2 53506  97.6561 346.5810 0001869  91.9939 268.1499 15.01270800 55447
STARLINK-4444           
1 53507U 22099AU  23226.33264006  .00001433  00000+0  11609-3 0  9991
2 53507  97.6555 346.5799 0001900  79.4230 280.7208 15.01263052 55447
STARLINK-4443           
1 53508U 22099AV  23226.33634076  .00001424  00000+0  11542-3 0  9996
2 53508  97.6556 346.5845 0001716  96.0203 264.1217 15.01265141 55448
STARLINK-4402           
1 53509U 22099AW  23226.32917939  .00001479  00000+0  11974-3 0  9997
2 53509  97.6556 346.5751 0001425  95.5754 264.5633 15.01264662 55440
STARLINK-4441           
1 53510U 22099AX  23226.33078666  .00001820  00000+0  14623-3 0  9999
2 53510  97.6547 346.5776 0001789  88.1474 271.9955 15.01265295 55441
STARLINK-4511           
1 53527U 22101A   23225.42541364  .00000466  00000+0  47359-4 0  9998
2 53527  53.2159 330.6389 0001316  83.6865 276.4277 15.08837230 54368
STARLINK-4503           
1 53528U 22101B   23226.42269245  .00007315  00000+0  47718-3 0  9993
2 53528  53.2166 326.1645 0000893  89.0302 271.0793 15.08842684 54517
STARLINK-4478           
1 53529U 22101C   23225.55421294  .00004250  00000+0  28497-3 0  9999
2 53529  53.2157 330.0617 0001005  52.7876 307.3208 15.08837056 54386
STARLINK-4482           
1 53530U 22101D   23226.47517182  .00004613  00000+0  30778-3 0  9993
2 53530  53.2169 325.9297 0000651  81.6233 278.4832 15.08833110 54526
STARLINK-4487           
1 53531U 22101E   23226.01421053 -.00000138  00000+0  93927-5 0  9991
2 53531  53.2172 327.9980 0000803  91.0899 269.0185 15.08846405 54454
STARLINK-4483           
1 53532U 22101F   23226.44477502  .00000210  00000+0  31254-4 0  9993
2 53532  53.2198 326.0672 0001191 104.6404 255.4720 15.08836613 54527
STARLINK-4493           
1 53533U 22101G   23226.44108940  .00003159  00000+0  21644-3 0  9997
2 53533  53.2178 326.0710 0001088  91.3255 268.7861 15.08845923 54527
STARLINK-4488           
1 53534U 22101H   23226.43005284  .00000379  00000+0  41865-4 0  9993
2 53534  53.2170 326.1334 0001040 100.9132 259.1977 15.08836132 54526
STARLINK-4138           
1 53535U 22101J   23225.51005093  .00000206  00000+0  31019-4 0  9999
2 53535  53.2180 330.2617 0000771  97.9752 262.1328 15.08837232 54381
STARLINK-4053           
1 53536U 22101K   23226.42361932  .00000715  00000+0  62992-4 0  9997
2 53536  53.2178 316.1963 0001051  67.6744 292.4360 15.08837476 54655
STARLINK-4120           
1 53537U 22101L   23226.43836865  .00003586  00000+0  24332-3 0  9995
2 53537  53.2179 326.0646 0001055 102.8080 257.3031 15.08828558 54526
STARLINK-4118           
1 53538U 22101M   23226.41625171  .00001443  00000+0  10871-3 0  9993
2 53538  53.2175 316.1917 0000919 101.2509 258.8587 15.08840474 54658
STARLINK-4123           
1 53539U 22101N   23225.90381373 -.00001613  00000+0 -83332-4 0  9994
2 53539  53.2182 328.4921 0000610 145.1335 214.9697 15.08832884 54448
STARLINK-4486           
1 53540U 22101P   23225.75017070  .00005924  00000+0  38994-3 0  9999
2 53540  53.2176 319.1797 0001171  94.6808 265.4317 15.08842499 54552
STARLINK-4485           
1 53541U 22101Q   23226.42637069  .00000801  00000+0  68379-4 0  9991
2 53541  53.2168 326.1511 0000782  93.6340 266.4742 15.08838876 54527
STARLINK-4489           
1 53542U 22101R   23226.40521310  .00004281  00000+0  28685-3 0  9992
2 53542  53.2159 316.2401 0001173 104.2183 255.8940 15.08847958 54652
STARLINK-4297           
1 53543U 22101S   23225.49258104  .00001534  00000+0  11442-3 0  9990
2 53543  53.2179 320.4074 0001267  81.1053 279.0083 15.08842105 54511
STARLINK-4303           
1 53544U 22101T   23225.93417459 -.00000346  00000+0 -36766-5 0  9990
2 53544  53.2175 318.3574 0001043  67.0263 293.0839 15.08834292 54587
STARLINK-4475           
1 53545U 22101U   23226.40888948  .00011928  00000+0  76608-3 0  9992
2 53545  53.2164 316.2173 0001756 130.0520 230.0627 15.08849874 54652
STARLINK-4477           
1 53546U 22101V   23225.94975761  .00001381  00000+0  10481-3 0  9990
2 53546  53.2164 307.8194 0000951  80.0208 280.0892 15.08839354 54735
STARLINK-4474           
1 53547U 22101W   23226.46777477  .00000315  00000+0  37896-4 0  9999
2 53547  53.2166 315.9612 0000992  69.0036 291.1062 15.08836948 54664
STARLINK-4513           
1 53548U 22101X   23225.98937493  .00020851  00000+0  13251-2 0  9996
2 53548  53.2159 318.1126 0001454  89.3635 270.7524 15.08818564 54598
STARLINK-4516           
1 53549U 22101Y   23225.99673305  .00000520  00000+0  50723-4 0  9995
2 53549  53.2164 318.0749 0001066 100.7786 259.3326 15.08840610 54599
STARLINK-4518           
1 53550U 22101Z   23225.52201176  .00000132  00000+0  26368-4 0  9996
2 53550  53.2180 320.2120 0001515  91.2824 268.8341 15.08840270 54520
STARLINK-4514           
1 53551U 22101AA  23225.99305065 -.00001192  00000+0 -56791-4 0  9992
2 53551  53.2178 318.0942 0000995  84.1811 275.9294 15.08842865 54598
